[{"OBJECT_NAME":"STARLINK-5041","OBJECT_ID":"2022-119F","EPOCH":"2026-03-09T21:20:12.918624","MEAN_MOTION":15.08835643,"ECCENTRICITY":0.00017451,"INCLINATION":53.2196,"RA_OF_ASC_NODE":323.3025,"ARG_OF_PERICENTER":84.2688,"MEAN_ANOMALY":275.8503,"EPHEMERIS_TYPE":0,"CLASSIFICATION_TYPE":"U","NORAD_CAT_ID":53891,"ELEMENT_SET_NO":999,"REV_AT_EPOCH":19171,"BSTAR":0.00020031563,"MEAN_MOTION_DOT":2.901e-5,"MEAN_MOTION_DDOT":0},{"OBJECT_NAME":"PSLV R\/B","OBJECT_ID":"2010-035F","EPOCH":"2026-03-09T21:32:02.806944","MEAN_MOTION":15.11637156,"ECCENTRICITY":0.00120112,"INCLINATION":97.9796,"RA_OF_ASC_NODE":355.2302,"ARG_OF_PERICENTER":197.9598,"MEAN_ANOMALY":162.1208,"EPHEMERIS_TYPE":0,"CLASSIFICATION_TYPE":"U","NORAD_CAT_ID":36800,"ELEMENT_SET_NO":999,"REV_AT_EPOCH":85407,"BSTAR":0.00037264097,"MEAN_MOTION_DOT":6.275e-5,"MEAN_MOTION_DDOT":0}]
